H1 CPF 01  gfz 2021 10 22 00  7951 terrasarx 
H2 0702601  6201 31698    2021 10 22 00 59 42 2021 10 27 00 00 42   120 1 1  0 0 0
H9
10 0 59511  79182.000000  0   -3572316.258   5653246.365   1647524.687
10 0 59511  79302.000000  0   -3502909.621   5882908.575    757133.972
10 0 59511  79422.000000  0   -3369165.208   6007951.176   -146588.661
10 0 59511  79542.000000  0   -3175305.207   6025143.977  -1047732.035
10 0 59511  79662.000000  0   -2926650.766   5933247.420  -1930447.757
10 0 59511  79782.000000  0   -2629487.848   5733045.741  -2779238.904
10 0 59511  79902.000000  0   -2290915.097   5427339.151  -3579235.916
10 0 59511  80022.000000  0   -1918679.707   5020897.978  -4316459.146
10 0 59511  80142.000000  0   -1521003.242   4520376.857  -4978060.960
10 0 59511  80262.000000  0   -1106403.610   3934195.626  -5552542.879
10 0 59511  80382.000000  0    -683515.730   3272389.249  -6029947.846
10 0 59511  80502.000000  0    -260914.363   2546428.035  -6402023.338
10 0 59511  80622.000000  0     153056.243   1769013.838  -6662351.782
10 0 59511  80742.000000  0     550442.196    953857.688  -6806450.927
10 0 59511  80862.000000  0     923828.726    115440.386  -6831843.307
10 0 59511  80982.000000  0    1266475.040   -731240.303  -6738093.951
10 0 59511  81102.000000  0    1572432.494  -1570931.927  -6526815.481
10 0 59511  81222.000000  0    1836645.493  -2388394.404  -6201643.260
10 0 59511  81342.000000  0    2055034.620  -3168670.180  -5768180.611
10 0 59511  81462.000000  0    2224560.070  -3897356.006  -5233913.698
10 0 59511  81582.000000  0    2343264.357  -4560870.521  -4608091.905
10 0 59511  81702.000000  0    2410292.850  -5146709.358  -3901577.842
10 0 59511  81822.000000  0    2425892.072  -5643687.075  -3126669.371
10 0 59511  81942.000000  0    2391385.455  -6042160.254  -2296892.803
10 0 59511  82062.000000  0    2309126.773  -6334225.857  -1426770.730
10 0 59511  82182.000000  0    2182430.869  -6513889.419   -531567.264
10 0 59511  82302.000000  0    2015484.814  -6577195.792    372985.579
10 0 59511  82422.000000  0    1813238.776  -6522319.914   1270970.484
10 0 59511  82542.000000  0    1581282.730  -6349617.413   2146574.001
10 0 59511  82662.000000  0    1325708.385  -6061627.930   2984375.359
10 0 59511  82782.000000  0    1052962.332  -5663035.095   3769625.001
10 0 59511  82902.000000  0     769693.832  -5160583.921   4488509.424
10 0 59511  83022.000000  0     482600.934  -4562958.869   5128396.504
10 0 59511  83142.000000  0     198278.078  -3880624.246   5678057.951
10 0 59511  83262.000000  0     -76929.396  -3125630.496   6127863.582
10 0 59511  83382.000000  0    -337061.903  -2311392.309   6469943.800
10 0 59511  83502.000000  0    -576670.726  -1452445.648   6698319.889
10 0 59511  83622.000000  0    -790928.961   -564186.298   6809003.321
10 0 59511  83742.000000  0    -975726.896    337407.472   6800062.120
10 0 59511  83862.000000  0   -1127750.165   1236062.556   6671652.346
10 0 59511  83982.000000  0   -1244538.709   2115504.053   6426015.215
10 0 59511  84102.000000  0   -1324526.486   2959749.439   6067440.544
10 0 59511  84222.000000  0   -1367061.686   3753399.848   5602196.365
10 0 59511  84342.000000  0   -1372406.086   4481923.505   5038425.062
10 0 59511  84462.000000  0   -1341714.313   5131927.443   4386007.622
10 0 59511  84582.000000  0   -1276993.209   5691411.780   3656394.673
10 0 59511  84702.000000  0   -1181041.681   6149999.365   2862408.663
10 0 59511  84822.000000  0   -1057374.625   6499139.396   2018019.492
10 0 59511  84942.000000  0    -910127.551   6732276.640   1138094.282
10 0 59511  85062.000000  0    -743947.201   6844980.897    238129.875
10 0 59511  85182.000000  0    -563870.692   6835035.996   -666027.169
10 0 59511  85302.000000  0    -375195.907   6702484.596  -1558469.820
10 0 59511  85422.000000  0    -183347.082   6449624.160  -2423520.464
10 0 59511  85542.000000  0       6260.240   6080957.652  -3246011.804
10 0 59511  85662.000000  0     188352.169   5603103.015  -4011555.510
10 0 59511  85782.000000  0     357924.892   5024662.542  -4706793.983
10 0 59511  85902.000000  0     510365.031   4356055.658  -5319629.813
10 0 59511  86022.000000  0     641559.222   3609320.209  -5839429.348
10 0 59511  86142.000000  0     747989.972   2797886.576  -6257197.838
10 0 59511  86262.000000  0     826816.454   1936330.312  -6565723.674
10 0 59511  86382.000000  0     875939.242   1040109.377  -6759691.243
10 0 59512    102.000000  0     894047.354    125289.265  -6835763.528
10 0 59512    222.000000  0     880647.754   -791740.272  -6792633.401
10 0 59512    342.000000  0     836076.080  -1694552.507  -6631042.145
10 0 59512    462.000000  0     761489.392  -2566969.226  -6353767.202
10 0 59512    582.000000  0     658841.109  -3393343.920  -5965582.091
10 0 59512    702.000000  0     530836.895  -4158840.861  -5473183.251
10 0 59512    822.000000  0     380873.972  -4849701.194  -4885084.213
10 0 59512    942.000000  0     212963.906  -5453494.082  -4211480.324
10 0 59512   1062.000000  0      31639.615  -5959348.705  -3464082.531
10 0 59512   1182.000000  0    -158151.199  -6358160.471  -2655921.584
10 0 59512   1302.000000  0    -351164.176  -6642767.545  -1801126.480
10 0 59512   1422.000000  0    -541985.499  -6808093.140   -914678.158
10 0 59512   1542.000000  0    -725165.034  -6851247.302    -12143.566
10 0 59512   1662.000000  0    -895352.139  -6771585.726    890603.469
10 0 59512   1782.000000  0   -1047430.998  -6570724.636   1777669.037
10 0 59512   1902.000000  0   -1176651.736  -6252509.876   2633428.469
10 0 59512   2022.000000  0   -1278753.568  -5822940.476   3442810.690
10 0 59512   2142.000000  0   -1350076.151  -5290048.457   4191571.140
10 0 59512   2262.000000  0   -1387657.417  -4663738.761   4866545.297
10 0 59512   2382.000000  0   -1389315.590  -3955596.525   5455880.683
10 0 59512   2502.000000  0   -1353713.716  -3178663.122   5949244.610
10 0 59512   2622.000000  0   -1280404.224  -2347185.822   6338000.461
10 0 59512   2742.000000  0   -1169852.901  -1476350.953   6615351.401
10 0 59512   2862.000000  0   -1023443.574   -582003.960   6776453.684
10 0 59512   2982.000000  0    -843463.426    319640.762   6818496.027
10 0 59512   3102.000000  0    -633067.773   1212293.273   6740745.611
10 0 59512   3222.000000  0    -396224.405   2079882.003   6544560.366
10 0 59512   3342.000000  0    -137639.004   2906842.744   6233366.527
10 0 59512   3462.000000  0     137336.846   3678398.071   5812602.502
10 0 59512   3582.000000  0     422813.287   4380824.162   5289629.206
10 0 59512   3702.000000  0     712484.758   5001699.494   4673607.504
10 0 59512   3822.000000  0     999765.196   5530132.254   3975342.838
10 0 59512   3942.000000  0    1277930.788   5956958.326   3207099.607
10 0 59512   4062.000000  0    1540272.678   6274912.963   2382390.723
10 0 59512   4182.000000  0    1780251.806   6478764.388   1515733.996
10 0 59512   4302.000000  0    1991651.730   6565406.034    622391.525
10 0 59512   4422.000000  0    2168727.614   6533905.831   -281906.930
10 0 59512   4542.000000  0    2306345.869   6385512.148  -1181248.659
10 0 59512   4662.000000  0    2400111.996   6123616.642  -2059825.814
10 0 59512   4782.000000  0    2446483.537   5753674.824  -2902220.304
10 0 59512   4902.000000  0    2442864.983   5283086.047  -3693680.081
10 0 59512   5022.000000  0    2387682.165   4721035.281  -4420380.032
10 0 59512   5142.000000  0    2280434.134   4078302.785  -5069661.186
10 0 59512   5262.000000  0    2121722.539   3367047.585  -5630244.881
10 0 59512   5382.000000  0    1913258.522   2600570.232  -6092420.081
10 0 59512   5502.000000  0    1657846.562   1793058.859  -6448200.947
10 0 59512   5622.000000  0    1359347.057    959325.566  -6691452.693
10 0 59512   5742.000000  0    1022618.336    114537.200  -6817987.746
10 0 59512   5862.000000  0     653437.334   -726056.237  -6825630.346
10 0 59512   5982.000000  0     258401.604  -1547391.033  -6714248.439
10 0 59512   6102.000000  0    -155185.235  -2334851.690  -6485754.878
10 0 59512   6222.000000  0    -579444.561  -3074524.868  -6144080.175
10 0 59512   6342.000000  0   -1006068.891  -3753442.896  -5695111.927
10 0 59512   6462.000000  0   -1426479.526  -4359810.118  -5146603.314
10 0 59512   6582.000000  0   -1831994.854  -4883211.573  -4508051.423
10 0 59512   6702.000000  0   -2214006.552  -5314799.183  -3790543.701
10 0 59512   6822.000000  0   -2564159.803  -5647450.406  -3006574.352
10 0 59512   6942.000000  0   -2874533.443  -5875896.102  -2169833.421
10 0 59512   7062.000000  0   -3137816.485  -5996814.968  -1294971.078
10 0 59512   7182.000000  0   -3347476.702  -6008890.986   -397339.740
10 0 59512   7302.000000  0   -3497915.827  -5912830.368    507280.853
10 0 59512   7422.000000  0   -3584607.320  -5711337.697   1402968.606
10 0 59512   7542.000000  0   -3604213.420  -5409051.446   2273948.635
10 0 59512   7662.000000  0   -3554677.694  -5012439.696   3104880.097
10 0 59512   7782.000000  0   -3435291.142  -4529660.170   3881133.598
10 0 59512   7902.000000  0   -3246730.336  -3970387.881   4589054.173
10 0 59512   8022.000000  0   -2991066.818  -3345614.200   5216203.790
10 0 59512   8142.000000  0   -2671747.903  -2667423.642   5751578.727
10 0 59512   8262.000000  0   -2293549.198  -1948754.344   6185798.817
10 0 59512   8382.000000  0   -1862500.980  -1203147.473   6511267.503
10 0 59512   8502.000000  0   -1385788.323   -444487.913   6722300.097
10 0 59512   8622.000000  0    -871628.596    313256.230   6815214.543
10 0 59512   8742.000000  0    -329130.194   1056289.061   6788391.306
10 0 59512   8862.000000  0     231868.659   1771237.644   6642300.526
10 0 59512   8982.000000  0     800978.114   2445392.619   6379494.251
10 0 59512   9102.000000  0    1367448.489   3066933.825   6004563.962
10 0 59512   9222.000000  0    1920372.231   3625138.822   5524065.669
99
